CCSDS_OMM_VERS = 2.0
CREATION_DATE  = 
ORIGINATOR     = 

OBJECT_NAME    = CORAL
OBJECT_ID      = 1998-067YA
CENTER_NAME    = EARTH
REF_FRAME      = TEME
TIME_SYSTEM    = UTC
MEAN_ELEMENT_THEORY = SGP/SGP4

EPOCH          = 2026-03-30T01:25:09.312384
MEAN_MOTION    = 15.57840895
ECCENTRICITY   = .001288
INCLINATION    = 51.6303
RA_OF_ASC_NODE = 329.6801
ARG_OF_PERICENTER = 249.3222
MEAN_ANOMALY   = 110.6389

EPHEMERIS_TYPE = 0
CLASSIFICATION_TYPE = U
NORAD_CAT_ID   = 67684
ELEMENT_SET_NO = 999
REV_AT_EPOCH   = 796
BSTAR          = .14285E-2
MEAN_MOTION_DOT = .10987E-2
MEAN_MOTION_DDOT = 0

CCSDS_OMM_VERS = 2.0
CREATION_DATE  = 
ORIGINATOR     = 

OBJECT_NAME    = GXIBA-1
OBJECT_ID      = 1998-067YB
CENTER_NAME    = EARTH
REF_FRAME      = TEME
TIME_SYSTEM    = UTC
MEAN_ELEMENT_THEORY = SGP/SGP4

EPOCH          = 2026-03-30T01:20:14.376480
MEAN_MOTION    = 15.54098207
ECCENTRICITY   = .0012014
INCLINATION    = 51.6323
RA_OF_ASC_NODE = 330.4074
ARG_OF_PERICENTER = 256.8362
MEAN_ANOMALY   = 103.1288

EPHEMERIS_TYPE = 0
CLASSIFICATION_TYPE = U
NORAD_CAT_ID   = 67685
ELEMENT_SET_NO = 999
REV_AT_EPOCH   = 795
BSTAR          = .87009E-3
MEAN_MOTION_DOT = .57636E-3
MEAN_MOTION_DDOT = 0

CCSDS_OMM_VERS = 2.0
CREATION_DATE  = 
ORIGINATOR     = 

OBJECT_NAME    = UITMSAT-2
OBJECT_ID      = 1998-067YC
CENTER_NAME    = EARTH
REF_FRAME      = TEME
TIME_SYSTEM    = UTC
MEAN_ELEMENT_THEORY = SGP/SGP4

EPOCH          = 2026-03-30T00:58:06.542400
MEAN_MOTION    = 15.55077953
ECCENTRICITY   = .0009168
INCLINATION    = 51.6316
RA_OF_ASC_NODE = 330.3073
ARG_OF_PERICENTER = 228.7087
MEAN_ANOMALY   = 131.3115

EPHEMERIS_TYPE = 0
CLASSIFICATION_TYPE = U
NORAD_CAT_ID   = 67686
ELEMENT_SET_NO = 999
REV_AT_EPOCH   = 795
BSTAR          = .10299E-2
MEAN_MOTION_DOT = .7085E-3
MEAN_MOTION_DDOT = 0

CCSDS_OMM_VERS = 2.0
CREATION_DATE  = 
ORIGINATOR     = 

OBJECT_NAME    = HMU-SAT2
OBJECT_ID      = 1998-067YD
CENTER_NAME    = EARTH
REF_FRAME      = TEME
TIME_SYSTEM    = UTC
MEAN_ELEMENT_THEORY = SGP/SGP4

EPOCH          = 2026-03-30T01:27:37.530720
MEAN_MOTION    = 15.53840190
ECCENTRICITY   = .000869
INCLINATION    = 51.6327
RA_OF_ASC_NODE = 330.4447
ARG_OF_PERICENTER = 231.6398
MEAN_ANOMALY   = 128.3812

EPHEMERIS_TYPE = 0
CLASSIFICATION_TYPE = U
NORAD_CAT_ID   = 67687
ELEMENT_SET_NO = 999
REV_AT_EPOCH   = 787
BSTAR          = .8513E-3
MEAN_MOTION_DOT = .55756E-3
MEAN_MOTION_DDOT = 0

CCSDS_OMM_VERS = 2.0
CREATION_DATE  = 
ORIGINATOR     = 

OBJECT_NAME    = LEOPARD
OBJECT_ID      = 1998-067YE
CENTER_NAME    = EARTH
REF_FRAME      = TEME
TIME_SYSTEM    = UTC
MEAN_ELEMENT_THEORY = SGP/SGP4

EPOCH          = 2026-03-29T22:03:04.242240
MEAN_MOTION    = 15.54617115
ECCENTRICITY   = .0008837
INCLINATION    = 51.6326
RA_OF_ASC_NODE = 330.9957
ARG_OF_PERICENTER = 228.8884
MEAN_ANOMALY   = 131.1345

EPHEMERIS_TYPE = 0
CLASSIFICATION_TYPE = U
NORAD_CAT_ID   = 67688
ELEMENT_SET_NO = 999
REV_AT_EPOCH   = 785
BSTAR          = .95831E-3
MEAN_MOTION_DOT = .6472E-3
MEAN_MOTION_DDOT = 0

CCSDS_OMM_VERS = 2.0
CREATION_DATE  = 
ORIGINATOR     = 

OBJECT_NAME    = CREW DRAGON 12
OBJECT_ID      = 2026-031A
CENTER_NAME    = EARTH
REF_FRAME      = TEME
TIME_SYSTEM    = UTC
MEAN_ELEMENT_THEORY = SGP/SGP4

EPOCH          = 2026-03-30T03:57:49.771296
MEAN_MOTION    = 15.48649502
ECCENTRICITY   = .0006182
INCLINATION    = 51.6344
RA_OF_ASC_NODE = 331.1363
ARG_OF_PERICENTER = 249.8594
MEAN_ANOMALY   = 110.1729

EPHEMERIS_TYPE = 0
CLASSIFICATION_TYPE = U
NORAD_CAT_ID   = 67796
ELEMENT_SET_NO = 999
REV_AT_EPOCH   = 55946
BSTAR          = .23377E-3
MEAN_MOTION_DOT = .12299E-3
MEAN_MOTION_DDOT = 0

CCSDS_OMM_VERS = 2.0
CREATION_DATE  = 
ORIGINATOR     = 

OBJECT_NAME    = PROGRESS-MS 33
OBJECT_ID      = 2026-058A
CENTER_NAME    = EARTH
REF_FRAME      = TEME
TIME_SYSTEM    = UTC
MEAN_ELEMENT_THEORY = SGP/SGP4

EPOCH          = 2026-03-30T03:57:49.771296
MEAN_MOTION    = 15.48649502
ECCENTRICITY   = .0006182
INCLINATION    = 51.6344
RA_OF_ASC_NODE = 331.1363
ARG_OF_PERICENTER = 249.8594
MEAN_ANOMALY   = 110.1729

EPHEMERIS_TYPE = 0
CLASSIFICATION_TYPE = U
NORAD_CAT_ID   = 68319
ELEMENT_SET_NO = 999
REV_AT_EPOCH   = 97
BSTAR          = .23377E-3
MEAN_MOTION_DOT = .12299E-3
MEAN_MOTION_DDOT = 0

